54647,ONEWEB-0545,2022,108.94,148.0,+,87.93,Active,1,LEO,USA,UK,Commercial,Communications,Falcon,1 54647U 22166F   25009.21976922  .00000044  00000+0  74604-4 0  9999,2 54647  87.9303 348.3923 0001608  64.3896 295.7404 13.21825291102289,13.21825291,0.0001608,LEO
54648,ONEWEB-0580,2022,108.94,148.0,+,87.93,Active,1,LEO,USA,UK,Commercial,Communications,Falcon,1 54648U 22166G   25009.19297454  .00000036  00000+0  56023-4 0  9999,2 54648  87.9311 348.3817 0001963  72.3410 287.7938 13.21825660102324,13.2182566,0.0001963,LEO
54649,ONEWEB-0582,2022,108.94,148.0,+,87.93,Active,1,LEO,USA,UK,Commercial,Communications,Falcon,1 54649U 22166H   25009.68971932  .00000003  00000+0 -24168-4 0  9994,2 54649  87.9308 348.3139 0002019  66.6026 293.5320 13.21827429102831,13.21827429,0.0002019,LEO
54650,ONEWEB-0583,2022,108.94,148.0,+,87.93,Active,1,LEO,USA,UK,Commercial,Communications,Falcon,1 54650U 22166J   25009.17090193  .00000087  00000+0  18030-3 0  9992,2 54650  87.9314 348.4143 0001559  80.8738 279.2572 13.21819584102307,13.21819584,0.0001559,LEO
54651,ONEWEB-0584,2022,108.94,148.0,+,87.93,Active,1,LEO,USA,UK,Commercial,Communications,Falcon,1 54651U 22166K   25009.19139415  .00000084  00000+0  17182-3 0  9990,2 54651  87.9311 348.3860 0002064  73.0597 287.0763 13.21827493102294,13.21827493,0.0002064,LEO
54652,ONEWEB-0585,2022,108.94,148.0,+,87.93,Active,1,LEO,USA,UK,Commercial,Communications,Falcon,1 54652U 22166L   25009.21662710  .00000079  00000+0  15876-3 0  9995,2 54652  87.9302 348.3850 0001840  86.2812 273.8532 13.21826527102307,13.21826527,0.000184,LEO
54653,ONEWEB-0586,2022,108.94,148.0,+,87.93,Active,1,LEO,USA,UK,Commercial,Communications,Falcon,1 54653U 22166M   25009.22927400 -.00000058  00000+0 -17224-3 0  9995,2 54653  87.9306 348.3937 0001779  77.1906 282.9426 13.21827887102305,13.21827887,0.0001779,LEO
54654,ONEWEB-0587,2022,108.94,148.0,+,87.93,Active,1,LEO,USA,UK,Commercial,Communications,Falcon,1 54654U 22166N   25009.69286836  .00000025  00000+0  28000-4 0  9995,2 54654  87.9305 348.2534 0001831  91.0290 269.1054 13.21824880102985,13.2182488,0.0001831,LEO
